OBJECT_NAME,OBJECT_ID,EPOCH,MEAN_MOTION,ECCENTRICITY,INCLINATION,RA_OF_ASC_NODE,ARG_OF_PERICENTER,MEAN_ANOMALY,EPHEMERIS_TYPE,CLASSIFICATION_TYPE,NORAD_CAT_ID,ELEMENT_SET_NO,REV_AT_EPOCH,BSTAR,MEAN_MOTION_DOT,MEAN_MOTION_DDOT
INMARSAT 6-F1,2021-128A,2026-06-17T19:47:59.261280,1.00270216,.00002011,0.0178,324.3736,317.7302,4.7255,0,U,50319,999,1626,0,-.177E-5,0
SHIYAN-12 01 (SY-12 01),2021-129A,2026-06-17T19:17:22.677216,1.00039709,.0003248,3.6768,79.9013,285.9957,249.0802,0,U,50321,999,1650,0,.79E-6,0
SHIYAN-12 02 (SY-12 02),2021-129B,2026-06-17T18:31:37.411392,1.00489217,.0002693,3.6763,79.9071,60.0968,133.2903,0,U,50322,999,1650,0,-.271E-5,0
ZY-1 02E,2021-131A,2026-06-17T23:37:47.896032,14.35395929,.00020026,98.4436,246.0566,101.1902,258.9509,0,U,50465,999,23453,-.50225108E-4,-.187E-5,0
XW-3 (CAS-9),2021-131B,2026-06-17T22:58:10.089408,14.41357252,.00053951,98.4987,261.3426,94.8981,265.2824,0,U,50466,999,23522,.68524187E-4,.178E-5,0
ONEWEB-0389,2021-132A,2026-06-17T12:03:32.765184,13.17648749,.00021558,87.9130,5.8054,81.8916,278.2460,0,U,50469,999,21812,-.69663563E-4,-.14E-6,0
ONEWEB-0390,2021-132B,2026-06-17T12:05:58.561728,13.17648679,.00019985,87.9131,5.8059,93.9194,266.2166,0,U,50470,999,21812,-.23106387E-4,.4E-7,0
ONEWEB-0391,2021-132C,2026-06-17T12:08:24.442944,13.17648494,.00026862,87.9132,5.8153,84.6408,275.5030,0,U,50471,999,21812,-.17698495E-4,.6E-7,0
ONEWEB-0392,2021-132D,2026-06-17T12:52:09.393312,13.17648947,.0002204,87.9141,5.7776,82.8987,277.2395,0,U,50472,999,21816,-.56959E-4,-.9E-7,0
ONEWEB-0393,2021-132E,2026-06-17T12:16:54.532128,13.17649522,.00020092,87.9131,5.7996,84.9644,275.1717,0,U,50473,999,21815,-.43726864E-4,-.4E-7,0
ONEWEB-0394,2021-132F,2026-06-17T22:23:10.668768,13.18688249,.00018253,87.9171,335.2933,87.7813,272.3528,0,U,50474,999,22169,.76324445E-4,.43E-6,0
ONEWEB-0395,2021-132G,2026-06-17T14:59:44.000448,13.11418578,.00020321,87.8887,20.9802,88.9632,271.1729,0,U,50475,999,21577,-.12221099E-2,-.42E-5,0
ONEWEB-0396,2021-132H,2026-06-17T20:24:11.051424,13.18685271,.00019145,87.9173,335.3226,87.7940,272.3411,0,U,50476,999,22172,-.15607726E-4,.7E-7,0
ONEWEB-0397,2021-132J,2026-06-17T20:46:02.413344,13.18685527,.00018348,87.9172,335.3195,84.6624,275.4718,0,U,50477,999,22170,.70142161E-4,.41E-6,0
ONEWEB-0398,2021-132K,2026-06-17T12:23:29.397408,13.11414333,.00019633,87.8892,20.9924,94.2490,265.8862,0,U,50478,999,21565,.54633921E-3,.206E-5,0
ONEWEB-0399,2021-132L,2026-06-17T12:03:58.385376,13.11416018,.00021303,87.8894,21.0060,74.2449,285.8914,0,U,50479,999,21564,.14835595E-2,.539E-5,0
ONEWEB-0400,2021-132M,2026-06-17T20:14:28.747392,13.18685556,.00018886,87.9171,335.3137,98.0636,262.0710,0,U,50480,999,22169,-.17618375E-3,-.57E-6,0
ONEWEB-0401,2021-132N,2026-06-17T21:20:01.968288,13.18684812,.00016536,87.9172,335.3020,89.2835,270.8487,0,U,50481,999,22170,.68235494E-4,.4E-6,0
ONEWEB-0402,2021-132P,2026-06-17T22:15:53.303328,13.18686293,.00014903,87.9171,335.2834,81.2014,278.9287,0,U,50482,999,22173,.36527865E-4,.27E-6,0
ONEWEB-0403,2021-132Q,2026-06-17T21:03:02.142432,13.18685286,.00019945,87.9171,335.3179,91.0026,269.1335,0,U,50483,999,22168,.16873341E-3,.79E-6,0
ONEWEB-0404,2021-132R,2026-06-17T11:37:06.220992,13.11419334,.00021337,87.8889,21.0082,82.4020,277.7350,0,U,50484,999,21573,.20652128E-3,.86E-6,0
ONEWEB-0405,2021-132S,2026-06-17T21:22:27.909120,13.18686488,.00020749,87.9173,335.2998,105.1570,254.9792,0,U,50485,999,22208,.13868065E-3,.68E-6,0
ONEWEB-0406,2021-132T,2026-06-17T21:10:19.332480,13.18684922,.00023389,87.9167,335.3178,85.6567,274.4832,0,U,50486,999,22171,.5195157E-4,.33E-6,0
ONEWEB-0407,2021-132U,2026-06-17T21:00:38.190528,13.18674990,.00016999,87.9173,335.3114,98.8780,261.2544,0,U,50487,999,22165,.6425678E-2,.2546E-4,0
ONEWEB-0409,2021-132V,2026-06-17T02:25:18.688800,13.11420380,.00021199,87.8893,21.0724,85.8977,274.2393,0,U,50488,999,21557,.33060453E-3,.13E-5,0
ONEWEB-0412,2021-132W,2026-06-17T22:32:52.237536,13.18685352,.00016261,87.9169,335.3067,86.2750,273.8569,0,U,50489,999,22175,.45654786E-4,.31E-6,0
ONEWEB-0413,2021-132X,2026-06-17T20:50:55.063104,13.18687047,.00015502,87.9161,335.3197,91.4402,268.6908,0,U,50490,999,22168,.28580085E-3,.126E-5,0
ONEWEB-0414,2021-132Y,2026-06-17T22:18:18.571968,13.18685712,.00018172,87.9175,335.2893,87.1642,272.9698,0,U,50491,999,22172,.89107162E-4,.48E-6,0
ONEWEB-0417,2021-132Z,2026-06-17T20:41:11.132160,13.18685731,.00020785,87.9163,335.3223,90.6338,269.5032,0,U,50492,999,22169,.10774991E-4,.17E-6,0
ONEWEB-0418,2021-132AA,2026-06-17T20:55:32.229120,13.18685020,.00021565,87.9170,335.3203,91.0598,269.0781,0,U,50493,999,22175,.1725097E-3,.81E-6,0
